STARLINK-36930          
1 68018U 26040D   26079.83335648  .00107211  00000+0  71260-3 0  9999
2 68018  97.2828  28.8257 0001768  92.4914 111.3372 15.75126440  4214
STARLINK-36921          
1 68019U 26040E   26079.83335648 -.00691454  00000+0 -49140-2 0  9990
2 68019  97.2840  28.8380 0001677  83.6466 141.8915 15.75683034  4217
STARLINK-36928          
1 68020U 26040F   26079.83335648 -.00295996  00000+0 -20442-2 0  9997
2 68020  97.2840  28.8339 0001029  89.3664 130.3876 15.75290270  4212
STARLINK-36858          
1 68021U 26040G   26080.23816409  .00389372  00000+0  19286-2 0  9997
2 68021  97.2791  29.4135 0000397 140.6876 219.4421 15.80990924  3181
STARLINK-36916          
1 68022U 26040H   26079.83335648 -.00061968  00000+0 -41710-3 0  9991
2 68022  97.2831  28.8375 0001247  86.2822 145.5118 15.75218050  4211
STARLINK-36871          
1 68023U 26040J   26079.83335648  .00131076  00000+0  86891-3 0  9997
2 68023  97.2830  28.8380 0001882  90.6675 143.1530 15.75118036  4212
STARLINK-36891          
1 68024U 26040K   26079.83335648  .00054525  00000+0  36479-3 0  9998
2 68024  97.2830  28.8396 0001776  88.2507 149.5754 15.75145104  4213
STARLINK-36378          
1 68025U 26040L   26079.83335648  .00159570  00000+0  10555-2 0  9991
2 68025  97.2841  28.8464 0000964 111.3723 134.4350 15.75087807  4162
STARLINK-36884          
1 68026U 26040M   26079.83335648  .00067805  00000+0  45276-3 0  9990
2 68026  97.2834  28.8431 0001503 104.0394 139.7828 15.75143907  4210
STARLINK-36940          
1 68027U 26040N   26079.83335648  .00041790  00000+0  28007-3 0  9999
2 68027  97.2858  28.8724 0001160  79.0688 214.7460 15.75157578  4314
STARLINK-36253          
1 68028U 26040P   26079.83335648 -.01917503  00000+0 -21565-1 0  9997
2 68028  97.2851  28.5947 0001501  90.3509 286.8205 15.65633392  4318
STARLINK-36944          
1 68029U 26040Q   26079.83335648  .00104765  00000+0  69640-3 0  9991
2 68029  97.2837  28.8447 0000992 108.9758 140.8420 15.75132649  4213
