CCSDS_OMM_VERS = 2.0
CREATION_DATE  = 
ORIGINATOR     = 

OBJECT_NAME    = STARLINK-36930
OBJECT_ID      = 2026-040D
CENTER_NAME    = EARTH
REF_FRAME      = TEME
TIME_SYSTEM    = UTC
MEAN_ELEMENT_THEORY = SGP/SGP4

EPOCH          = 2026-03-20T20:00:01.999872
MEAN_MOTION    = 15.75126440
ECCENTRICITY   = .00017685
INCLINATION    = 97.2828
RA_OF_ASC_NODE = 28.8257
ARG_OF_PERICENTER = 92.4914
MEAN_ANOMALY   = 111.3372

EPHEMERIS_TYPE = 0
CLASSIFICATION_TYPE = U
NORAD_CAT_ID   = 68018
ELEMENT_SET_NO = 999
REV_AT_EPOCH   = 421
BSTAR          = .71260463E-3
MEAN_MOTION_DOT = .107211E-2
MEAN_MOTION_DDOT = 0

CCSDS_OMM_VERS = 2.0
CREATION_DATE  = 
ORIGINATOR     = 

OBJECT_NAME    = STARLINK-36921
OBJECT_ID      = 2026-040E
CENTER_NAME    = EARTH
REF_FRAME      = TEME
TIME_SYSTEM    = UTC
MEAN_ELEMENT_THEORY = SGP/SGP4

EPOCH          = 2026-03-20T20:00:01.999872
MEAN_MOTION    = 15.75683034
ECCENTRICITY   = .00016776
INCLINATION    = 97.2840
RA_OF_ASC_NODE = 28.8380
ARG_OF_PERICENTER = 83.6466
MEAN_ANOMALY   = 141.8915

EPHEMERIS_TYPE = 0
CLASSIFICATION_TYPE = U
NORAD_CAT_ID   = 68019
ELEMENT_SET_NO = 999
REV_AT_EPOCH   = 421
BSTAR          = -.49140477E-2
MEAN_MOTION_DOT = -.691454E-2
MEAN_MOTION_DDOT = 0

CCSDS_OMM_VERS = 2.0
CREATION_DATE  = 
ORIGINATOR     = 

OBJECT_NAME    = STARLINK-36928
OBJECT_ID      = 2026-040F
CENTER_NAME    = EARTH
REF_FRAME      = TEME
TIME_SYSTEM    = UTC
MEAN_ELEMENT_THEORY = SGP/SGP4

EPOCH          = 2026-03-20T20:00:01.999872
MEAN_MOTION    = 15.75290270
ECCENTRICITY   = .00010295
INCLINATION    = 97.2840
RA_OF_ASC_NODE = 28.8339
ARG_OF_PERICENTER = 89.3664
MEAN_ANOMALY   = 130.3876

EPHEMERIS_TYPE = 0
CLASSIFICATION_TYPE = U
NORAD_CAT_ID   = 68020
ELEMENT_SET_NO = 999
REV_AT_EPOCH   = 421
BSTAR          = -.20442274E-2
MEAN_MOTION_DOT = -.295996E-2
MEAN_MOTION_DDOT = 0

CCSDS_OMM_VERS = 2.0
CREATION_DATE  = 
ORIGINATOR     = 

OBJECT_NAME    = STARLINK-36858
OBJECT_ID      = 2026-040G
CENTER_NAME    = EARTH
REF_FRAME      = TEME
TIME_SYSTEM    = UTC
MEAN_ELEMENT_THEORY = SGP/SGP4

EPOCH          = 2026-03-21T05:42:57.377376
MEAN_MOTION    = 15.80990924
ECCENTRICITY   = .0000397
INCLINATION    = 97.2791
RA_OF_ASC_NODE = 29.4135
ARG_OF_PERICENTER = 140.6876
MEAN_ANOMALY   = 219.4421

EPHEMERIS_TYPE = 0
CLASSIFICATION_TYPE = U
NORAD_CAT_ID   = 68021
ELEMENT_SET_NO = 999
REV_AT_EPOCH   = 318
BSTAR          = .19286E-2
MEAN_MOTION_DOT = .389372E-2
MEAN_MOTION_DDOT = 0

CCSDS_OMM_VERS = 2.0
CREATION_DATE  = 
ORIGINATOR     = 

OBJECT_NAME    = STARLINK-36916
OBJECT_ID      = 2026-040H
CENTER_NAME    = EARTH
REF_FRAME      = TEME
TIME_SYSTEM    = UTC
MEAN_ELEMENT_THEORY = SGP/SGP4

EPOCH          = 2026-03-20T20:00:01.999872
MEAN_MOTION    = 15.75218050
ECCENTRICITY   = .00012476
INCLINATION    = 97.2831
RA_OF_ASC_NODE = 28.8375
ARG_OF_PERICENTER = 86.2822
MEAN_ANOMALY   = 145.5118

EPHEMERIS_TYPE = 0
CLASSIFICATION_TYPE = U
NORAD_CAT_ID   = 68022
ELEMENT_SET_NO = 999
REV_AT_EPOCH   = 421
BSTAR          = -.4171014E-3
MEAN_MOTION_DOT = -.61968E-3
MEAN_MOTION_DDOT = 0

CCSDS_OMM_VERS = 2.0
CREATION_DATE  = 
ORIGINATOR     = 

OBJECT_NAME    = STARLINK-36871
OBJECT_ID      = 2026-040J
CENTER_NAME    = EARTH
REF_FRAME      = TEME
TIME_SYSTEM    = UTC
MEAN_ELEMENT_THEORY = SGP/SGP4

EPOCH          = 2026-03-20T20:00:01.999872
MEAN_MOTION    = 15.75118036
ECCENTRICITY   = .00018822
INCLINATION    = 97.2830
RA_OF_ASC_NODE = 28.8380
ARG_OF_PERICENTER = 90.6675
MEAN_ANOMALY   = 143.1530

EPHEMERIS_TYPE = 0
CLASSIFICATION_TYPE = U
NORAD_CAT_ID   = 68023
ELEMENT_SET_NO = 999
REV_AT_EPOCH   = 421
BSTAR          = .86891163E-3
MEAN_MOTION_DOT = .131076E-2
MEAN_MOTION_DDOT = 0

CCSDS_OMM_VERS = 2.0
CREATION_DATE  = 
ORIGINATOR     = 

OBJECT_NAME    = STARLINK-36891
OBJECT_ID      = 2026-040K
CENTER_NAME    = EARTH
REF_FRAME      = TEME
TIME_SYSTEM    = UTC
MEAN_ELEMENT_THEORY = SGP/SGP4

EPOCH          = 2026-03-20T20:00:01.999872
MEAN_MOTION    = 15.75145104
ECCENTRICITY   = .00017769
INCLINATION    = 97.2830
RA_OF_ASC_NODE = 28.8396
ARG_OF_PERICENTER = 88.2507
MEAN_ANOMALY   = 149.5754

EPHEMERIS_TYPE = 0
CLASSIFICATION_TYPE = U
NORAD_CAT_ID   = 68024
ELEMENT_SET_NO = 999
REV_AT_EPOCH   = 421
BSTAR          = .36479151E-3
MEAN_MOTION_DOT = .54525E-3
MEAN_MOTION_DDOT = 0

CCSDS_OMM_VERS = 2.0
CREATION_DATE  = 
ORIGINATOR     = 

OBJECT_NAME    = STARLINK-36378
OBJECT_ID      = 2026-040L
CENTER_NAME    = EARTH
REF_FRAME      = TEME
TIME_SYSTEM    = UTC
MEAN_ELEMENT_THEORY = SGP/SGP4

EPOCH          = 2026-03-20T20:00:01.999872
MEAN_MOTION    = 15.75087807
ECCENTRICITY   = .00009646
INCLINATION    = 97.2841
RA_OF_ASC_NODE = 28.8464
ARG_OF_PERICENTER = 111.3723
MEAN_ANOMALY   = 134.4350

EPHEMERIS_TYPE = 0
CLASSIFICATION_TYPE = U
NORAD_CAT_ID   = 68025
ELEMENT_SET_NO = 999
REV_AT_EPOCH   = 416
BSTAR          = .10554808E-2
MEAN_MOTION_DOT = .15957E-2
MEAN_MOTION_DDOT = 0

CCSDS_OMM_VERS = 2.0
CREATION_DATE  = 
ORIGINATOR     = 

OBJECT_NAME    = STARLINK-36884
OBJECT_ID      = 2026-040M
CENTER_NAME    = EARTH
REF_FRAME      = TEME
TIME_SYSTEM    = UTC
MEAN_ELEMENT_THEORY = SGP/SGP4

EPOCH          = 2026-03-20T20:00:01.999872
MEAN_MOTION    = 15.75143907
ECCENTRICITY   = .00015034
INCLINATION    = 97.2834
RA_OF_ASC_NODE = 28.8431
ARG_OF_PERICENTER = 104.0394
MEAN_ANOMALY   = 139.7828

EPHEMERIS_TYPE = 0
CLASSIFICATION_TYPE = U
NORAD_CAT_ID   = 68026
ELEMENT_SET_NO = 999
REV_AT_EPOCH   = 421
BSTAR          = .45275679E-3
MEAN_MOTION_DOT = .67805E-3
MEAN_MOTION_DDOT = 0

CCSDS_OMM_VERS = 2.0
CREATION_DATE  = 
ORIGINATOR     = 

OBJECT_NAME    = STARLINK-36940
OBJECT_ID      = 2026-040N
CENTER_NAME    = EARTH
REF_FRAME      = TEME
TIME_SYSTEM    = UTC
MEAN_ELEMENT_THEORY = SGP/SGP4

EPOCH          = 2026-03-20T20:00:01.999872
MEAN_MOTION    = 15.75157578
ECCENTRICITY   = .00011601
INCLINATION    = 97.2858
RA_OF_ASC_NODE = 28.8724
ARG_OF_PERICENTER = 79.0688
MEAN_ANOMALY   = 214.7460

EPHEMERIS_TYPE = 0
CLASSIFICATION_TYPE = U
NORAD_CAT_ID   = 68027
ELEMENT_SET_NO = 999
REV_AT_EPOCH   = 431
BSTAR          = .28007385E-3
MEAN_MOTION_DOT = .4179E-3
MEAN_MOTION_DDOT = 0

CCSDS_OMM_VERS = 2.0
CREATION_DATE  = 
ORIGINATOR     = 

OBJECT_NAME    = STARLINK-36253
OBJECT_ID      = 2026-040P
CENTER_NAME    = EARTH
REF_FRAME      = TEME
TIME_SYSTEM    = UTC
MEAN_ELEMENT_THEORY = SGP/SGP4

EPOCH          = 2026-03-20T20:00:01.999872
MEAN_MOTION    = 15.65633392
ECCENTRICITY   = .00015016
INCLINATION    = 97.2851
RA_OF_ASC_NODE = 28.5947
ARG_OF_PERICENTER = 90.3509
MEAN_ANOMALY   = 286.8205

EPHEMERIS_TYPE = 0
CLASSIFICATION_TYPE = U
NORAD_CAT_ID   = 68028
ELEMENT_SET_NO = 999
REV_AT_EPOCH   = 431
BSTAR          = -.21565052E-1
MEAN_MOTION_DOT = -.1917503E-1
MEAN_MOTION_DDOT = 0

CCSDS_OMM_VERS = 2.0
CREATION_DATE  = 
ORIGINATOR     = 

OBJECT_NAME    = STARLINK-36944
OBJECT_ID      = 2026-040Q
CENTER_NAME    = EARTH
REF_FRAME      = TEME
TIME_SYSTEM    = UTC
MEAN_ELEMENT_THEORY = SGP/SGP4

EPOCH          = 2026-03-20T20:00:01.999872
MEAN_MOTION    = 15.75132649
ECCENTRICITY   = .0000992
INCLINATION    = 97.2837
RA_OF_ASC_NODE = 28.8447
ARG_OF_PERICENTER = 108.9758
MEAN_ANOMALY   = 140.8420

EPHEMERIS_TYPE = 0
CLASSIFICATION_TYPE = U
NORAD_CAT_ID   = 68029
ELEMENT_SET_NO = 999
REV_AT_EPOCH   = 421
BSTAR          = .69640494E-3
MEAN_MOTION_DOT = .104765E-2
MEAN_MOTION_DDOT = 0

